{
  "type": "FeatureCollection",
  "features": [
    {
      "type": "Feature",
      "properties": {
        "norad_id": 48859,
        "name": "GPS BIII-5  (PRN 11)",
        "group": "gps-ops",
        "lat": -34.84419753757398,
        "lon": -171.67747326312585,
        "alt_km": 20122.837203848074,
        "timestamp": "2025-12-25T07:41:09.982136+00:00",
        "meta_object_name": "GPS BIII-5  (PRN 11)",
        "meta_object_id": "2021-054A",
        "meta_epoch": "2025-12-08T04:14:32.423424",
        "meta_mean_motion": 2.00553627,
        "meta_eccentricity": 0.0024678,
        "meta_inclination": 55.2581,
        "meta_ra_of_asc_node": 340.1367,
        "meta_arg_of_pericenter": 233.3993,
        "meta_mean_anomaly": 212.8594,
        "meta_ephemeris_type": 0,
        "meta_classification_type": "U",
        "meta_norad_cat_id": 48859,
        "meta_element_set_no": 999,
        "meta_rev_at_epoch": 3292,
        "meta_bstar": 0,
        "meta_mean_motion_dot": -8.6e-07,
        "meta_mean_motion_ddot": 0,
        "tle_line1": "1 48859U 21054A   25342.17676416 -.00000086  00000+0  00000+0 0  9993",
        "tle_line2": "2 48859  55.2581 340.1367 0024678 233.3993 212.8594  2.00553627 32922"
      },
      "geometry": {
        "type": "Point",
        "coordinates": [
          -171.67747326312585,
          -34.84419753757398
        ]
      }
    },
    {
      "type": "Feature",
      "properties": {
        "norad_id": 55268,
        "name": "GPS BIII-6  (PRN 28)",
        "group": "gps-ops",
        "lat": -54.946413209627515,
        "lon": 59.41684491186577,
        "alt_km": 20188.696291244047,
        "timestamp": "2025-12-25T07:41:09.982147+00:00",
        "meta_object_name": "GPS BIII-6  (PRN 28)",
        "meta_object_id": "2023-009A",
        "meta_epoch": "2025-12-22T10:59:58.065216",
        "meta_mean_motion": 2.00554901,
        "meta_eccentricity": 0.00037047,
        "meta_inclination": 55.1065,
        "meta_ra_of_asc_node": 155.4638,
        "meta_arg_of_pericenter": 355.7912,
        "meta_mean_anomaly": 4.4255,
        "meta_ephemeris_type": 0,
        "meta_classification_type": "U",
        "meta_norad_cat_id": 55268,
        "meta_element_set_no": 999,
        "meta_rev_at_epoch": 2170,
        "meta_bstar": 0,
        "meta_mean_motion_dot": 7.4e-07,
        "meta_mean_motion_ddot": 0,
        "tle_line1": "1 55268U 23009A   25356.45831094  .00000074  00000+0  00000+0 0  9994",
        "tle_line2": "2 55268  55.1065 155.4638 0003704 355.7912   4.4255  2.00554901 21704"
      },
      "geometry": {
        "type": "Point",
        "coordinates": [
          59.41684491186577,
          -54.946413209627515
        ]
      }
    },
    {
      "type": "Feature",
      "properties": {
        "norad_id": 62339,
        "name": "GPS BIII-7  (PRN 01)",
        "group": "gps-ops",
        "lat": -12.594658296486122,
        "lon": -27.81149090994266,
        "alt_km": 20149.69425950745,
        "timestamp": "2025-12-25T07:41:09.982158+00:00",
        "meta_object_name": "GPS BIII-7  (PRN 01)",
        "meta_object_id": "2024-242A",
        "meta_epoch": "2025-12-24T14:08:35.073312",
        "meta_mean_motion": 2.00568073,
        "meta_eccentricity": 0.00128162,
        "meta_inclination": 54.9201,
        "meta_ra_of_asc_node": 341.2611,
        "meta_arg_of_pericenter": 346.3759,
        "meta_mean_anomaly": 190.3817,
        "meta_ephemeris_type": 0,
        "meta_classification_type": "U",
        "meta_norad_cat_id": 62339,
        "meta_element_set_no": 999,
        "meta_rev_at_epoch": 775,
        "meta_bstar": 0,
        "meta_mean_motion_dot": -6.2e-07,
        "meta_mean_motion_ddot": 0,
        "tle_line1": "1 62339U 24242A   25358.58929483 -.00000062  00000+0  00000+0 0  9995",
        "tle_line2": "2 62339  54.9201 341.2611 0012816 346.3759 190.3817  2.00568073  7758"
      },
      "geometry": {
        "type": "Point",
        "coordinates": [
          -27.81149090994266,
          -12.594658296486122
        ]
      }
    },
    {
      "type": "Feature",
      "properties": {
        "norad_id": 64202,
        "name": "GPS BIII-8  (PRN 21)",
        "group": "gps-ops",
        "lat": 5.299285373709386,
        "lon": -145.5593055401352,
        "alt_km": 20193.96538817972,
        "timestamp": "2025-12-25T07:41:09.982172+00:00",
        "meta_object_name": "GPS BIII-8  (PRN 21)",
        "meta_object_id": "2025-116A",
        "meta_epoch": "2025-12-24T05:06:23.734944",
        "meta_mean_motion": 2.0055752,
        "meta_eccentricity": 0.00059658,
        "meta_inclination": 55.1137,
        "meta_ra_of_asc_node": 38.1782,
        "meta_arg_of_pericenter": 310.8419,
        "meta_mean_anomaly": 143.1183,
        "meta_ephemeris_type": 0,
        "meta_classification_type": "U",
        "meta_norad_cat_id": 64202,
        "meta_element_set_no": 999,
        "meta_rev_at_epoch": 436,
        "meta_bstar": 0,
        "meta_mean_motion_dot": -5e-07,
        "meta_mean_motion_ddot": 0,
        "tle_line1": "1 64202U 25116A   25358.21277471 -.00000050  00000+0  00000+0 0  9997",
        "tle_line2": "2 64202  55.1137  38.1782 0005965 310.8419 143.1183  2.00557520  4368"
      },
      "geometry": {
        "type": "Point",
        "coordinates": [
          -145.5593055401352,
          5.299285373709386
        ]
      }
    }
  ]
}